CCSDS_OMM_VERS = 2.0
CREATION_DATE  = 
ORIGINATOR     = 

OBJECT_NAME    = ATLAS CENTAUR R/B
OBJECT_ID      = 1972-065B
CENTER_NAME    = EARTH
REF_FRAME      = TEME
TIME_SYSTEM    = UTC
MEAN_ELEMENT_THEORY = SGP/SGP4

EPOCH          = 2026-03-25T18:34:40.130112
MEAN_MOTION    = 14.77730463
ECCENTRICITY   = .0033124
INCLINATION    = 35.0006
RA_OF_ASC_NODE = 211.4883
ARG_OF_PERICENTER = 146.4052
MEAN_ANOMALY   = 213.8756

EPHEMERIS_TYPE = 0
CLASSIFICATION_TYPE = U
NORAD_CAT_ID   = 6155
ELEMENT_SET_NO = 999
REV_AT_EPOCH   = 84364
BSTAR          = .17992E-3
MEAN_MOTION_DOT = .1299E-4
MEAN_MOTION_DDOT = 0

CCSDS_OMM_VERS = 2.0
CREATION_DATE  = 
ORIGINATOR     = 

OBJECT_NAME    = SL-8 R/B
OBJECT_ID      = 1975-112B
CENTER_NAME    = EARTH
REF_FRAME      = TEME
TIME_SYSTEM    = UTC
MEAN_ELEMENT_THEORY = SGP/SGP4

EPOCH          = 2026-03-25T17:02:53.464992
MEAN_MOTION    = 14.38212900
ECCENTRICITY   = .001451
INCLINATION    = 74.0633
RA_OF_ASC_NODE = 349.4441
ARG_OF_PERICENTER = 76.0449
MEAN_ANOMALY   = 284.2317

EPHEMERIS_TYPE = 0
CLASSIFICATION_TYPE = U
NORAD_CAT_ID   = 8459
ELEMENT_SET_NO = 999
REV_AT_EPOCH   = 63417
BSTAR          = .86653E-4
MEAN_MOTION_DOT = .237E-5
MEAN_MOTION_DDOT = 0

CCSDS_OMM_VERS = 2.0
CREATION_DATE  = 
ORIGINATOR     = 

OBJECT_NAME    = SL-3 R/B
OBJECT_ID      = 1977-057B
CENTER_NAME    = EARTH
REF_FRAME      = TEME
TIME_SYSTEM    = UTC
MEAN_ELEMENT_THEORY = SGP/SGP4

EPOCH          = 2026-03-25T18:34:08.480064
MEAN_MOTION    = 15.45942013
ECCENTRICITY   = .0006595
INCLINATION    = 97.5798
RA_OF_ASC_NODE = 257.4099
ARG_OF_PERICENTER = 216.7814
MEAN_ANOMALY   = 143.2983

EPHEMERIS_TYPE = 0
CLASSIFICATION_TYPE = U
NORAD_CAT_ID   = 10114
ELEMENT_SET_NO = 999
REV_AT_EPOCH   = 67081
BSTAR          = .28369E-3
MEAN_MOTION_DOT = .13733E-3
MEAN_MOTION_DDOT = 0

CCSDS_OMM_VERS = 2.0
CREATION_DATE  = 
ORIGINATOR     = 

OBJECT_NAME    = SEASAT 1
OBJECT_ID      = 1978-064A
CENTER_NAME    = EARTH
REF_FRAME      = TEME
TIME_SYSTEM    = UTC
MEAN_ELEMENT_THEORY = SGP/SGP4

EPOCH          = 2026-03-25T11:23:45.113280
MEAN_MOTION    = 14.46172802
ECCENTRICITY   = .00025688
INCLINATION    = 108.0081
RA_OF_ASC_NODE = 158.6212
ARG_OF_PERICENTER = 278.2912
MEAN_ANOMALY   = 81.7942

EPHEMERIS_TYPE = 0
CLASSIFICATION_TYPE = U
NORAD_CAT_ID   = 10967
ELEMENT_SET_NO = 999
REV_AT_EPOCH   = 50879
BSTAR          = .11092457E-3
MEAN_MOTION_DOT = .259E-5
MEAN_MOTION_DDOT = 0

CCSDS_OMM_VERS = 2.0
CREATION_DATE  = 
ORIGINATOR     = 

OBJECT_NAME    = SL-14 R/B
OBJECT_ID      = 1979-011B
CENTER_NAME    = EARTH
REF_FRAME      = TEME
TIME_SYSTEM    = UTC
MEAN_ELEMENT_THEORY = SGP/SGP4

EPOCH          = 2026-03-25T17:51:40.434336
MEAN_MOTION    = 14.91927692
ECCENTRICITY   = .0016238
INCLINATION    = 82.5206
RA_OF_ASC_NODE = 81.3315
ARG_OF_PERICENTER = 9.8236
MEAN_ANOMALY   = 350.3298

EPHEMERIS_TYPE = 0
CLASSIFICATION_TYPE = U
NORAD_CAT_ID   = 11267
ELEMENT_SET_NO = 999
REV_AT_EPOCH   = 53117
BSTAR          = .60727E-4
MEAN_MOTION_DOT = .641E-5
MEAN_MOTION_DDOT = 0

CCSDS_OMM_VERS = 2.0
CREATION_DATE  = 
ORIGINATOR     = 

OBJECT_NAME    = SL-8 R/B
OBJECT_ID      = 1979-089B
CENTER_NAME    = EARTH
REF_FRAME      = TEME
TIME_SYSTEM    = UTC
MEAN_ELEMENT_THEORY = SGP/SGP4

EPOCH          = 2026-03-25T08:25:54.521472
MEAN_MOTION    = 14.42359244
ECCENTRICITY   = .00168561
INCLINATION    = 74.0679
RA_OF_ASC_NODE = 62.0487
ARG_OF_PERICENTER = 232.8190
MEAN_ANOMALY   = 127.1429

EPHEMERIS_TYPE = 0
CLASSIFICATION_TYPE = U
NORAD_CAT_ID   = 11574
ELEMENT_SET_NO = 999
REV_AT_EPOCH   = 43836
BSTAR          = .7817635E-4
MEAN_MOTION_DOT = .232E-5
MEAN_MOTION_DDOT = 0

CCSDS_OMM_VERS = 2.0
CREATION_DATE  = 
ORIGINATOR     = 

OBJECT_NAME    = SL-14 R/B
OBJECT_ID      = 1980-005B
CENTER_NAME    = EARTH
REF_FRAME      = TEME
TIME_SYSTEM    = UTC
MEAN_ELEMENT_THEORY = SGP/SGP4

EPOCH          = 2026-03-25T13:35:43.708704
MEAN_MOTION    = 14.90947396
ECCENTRICITY   = .0017194
INCLINATION    = 82.5115
RA_OF_ASC_NODE = 292.1730
ARG_OF_PERICENTER = 108.7626
MEAN_ANOMALY   = 251.5460

EPHEMERIS_TYPE = 0
CLASSIFICATION_TYPE = U
NORAD_CAT_ID   = 11672
ELEMENT_SET_NO = 999
REV_AT_EPOCH   = 47885
BSTAR          = .51945E-4
MEAN_MOTION_DOT = .54E-5
MEAN_MOTION_DDOT = 0

CCSDS_OMM_VERS = 2.0
CREATION_DATE  = 
ORIGINATOR     = 

OBJECT_NAME    = SL-8 R/B
OBJECT_ID      = 1981-003B
CENTER_NAME    = EARTH
REF_FRAME      = TEME
TIME_SYSTEM    = UTC
MEAN_ELEMENT_THEORY = SGP/SGP4

EPOCH          = 2026-03-25T11:51:50.553504
MEAN_MOTION    = 15.11649481
ECCENTRICITY   = .02611696
INCLINATION    = 82.9350
RA_OF_ASC_NODE = 275.4019
ARG_OF_PERICENTER = 123.6099
MEAN_ANOMALY   = 239.0357

EPHEMERIS_TYPE = 0
CLASSIFICATION_TYPE = U
NORAD_CAT_ID   = 12139
ELEMENT_SET_NO = 999
REV_AT_EPOCH   = 31706
BSTAR          = .56618599E-3
MEAN_MOTION_DOT = .22514E-3
MEAN_MOTION_DDOT = 0

CCSDS_OMM_VERS = 2.0
CREATION_DATE  = 
ORIGINATOR     = 

OBJECT_NAME    = SL-3 R/B
OBJECT_ID      = 1981-046B
CENTER_NAME    = EARTH
REF_FRAME      = TEME
TIME_SYSTEM    = UTC
MEAN_ELEMENT_THEORY = SGP/SGP4

EPOCH          = 2026-03-25T19:27:17.752896
MEAN_MOTION    = 15.42379515
ECCENTRICITY   = .0018341
INCLINATION    = 81.2287
RA_OF_ASC_NODE = 270.3765
ARG_OF_PERICENTER = 325.4105
MEAN_ANOMALY   = 34.5943

EPHEMERIS_TYPE = 0
CLASSIFICATION_TYPE = U
NORAD_CAT_ID   = 12465
ELEMENT_SET_NO = 999
REV_AT_EPOCH   = 44091
BSTAR          = .24307E-3
MEAN_MOTION_DOT = .10586E-3
MEAN_MOTION_DDOT = 0

CCSDS_OMM_VERS = 2.0
CREATION_DATE  = 
ORIGINATOR     = 

OBJECT_NAME    = SL-3 R/B
OBJECT_ID      = 1981-103B
CENTER_NAME    = EARTH
REF_FRAME      = TEME
TIME_SYSTEM    = UTC
MEAN_ELEMENT_THEORY = SGP/SGP4

EPOCH          = 2026-03-25T19:39:43.452288
MEAN_MOTION    = 15.21564208
ECCENTRICITY   = .0012684
INCLINATION    = 81.1605
RA_OF_ASC_NODE = 194.5116
ARG_OF_PERICENTER = 228.8348
MEAN_ANOMALY   = 131.1790

EPHEMERIS_TYPE = 0
CLASSIFICATION_TYPE = U
NORAD_CAT_ID   = 12904
ELEMENT_SET_NO = 999
REV_AT_EPOCH   = 97568
BSTAR          = .20303E-3
MEAN_MOTION_DOT = .461E-4
MEAN_MOTION_DDOT = 0

CCSDS_OMM_VERS = 2.0
CREATION_DATE  = 
ORIGINATOR     = 

OBJECT_NAME    = SL-3 R/B
OBJECT_ID      = 1982-013B
CENTER_NAME    = EARTH
REF_FRAME      = TEME
TIME_SYSTEM    = UTC
MEAN_ELEMENT_THEORY = SGP/SGP4

EPOCH          = 2026-03-25T19:41:57.698880
MEAN_MOTION    = 15.22160441
ECCENTRICITY   = .0023421
INCLINATION    = 81.1742
RA_OF_ASC_NODE = 141.8637
ARG_OF_PERICENTER = 124.3704
MEAN_ANOMALY   = 235.9748

EPHEMERIS_TYPE = 0
CLASSIFICATION_TYPE = U
NORAD_CAT_ID   = 13068
ELEMENT_SET_NO = 999
REV_AT_EPOCH   = 40680
BSTAR          = .15628E-3
MEAN_MOTION_DOT = .3637E-4
MEAN_MOTION_DDOT = 0

CCSDS_OMM_VERS = 2.0
CREATION_DATE  = 
ORIGINATOR     = 

OBJECT_NAME    = SL-3 R/B
OBJECT_ID      = 1982-039B
CENTER_NAME    = EARTH
REF_FRAME      = TEME
TIME_SYSTEM    = UTC
MEAN_ELEMENT_THEORY = SGP/SGP4

EPOCH          = 2026-03-25T19:46:52.997664
MEAN_MOTION    = 15.10168382
ECCENTRICITY   = .0028838
INCLINATION    = 81.1571
RA_OF_ASC_NODE = 197.3586
ARG_OF_PERICENTER = 271.2964
MEAN_ANOMALY   = 88.4958

EPHEMERIS_TYPE = 0
CLASSIFICATION_TYPE = U
NORAD_CAT_ID   = 13154
ELEMENT_SET_NO = 999
REV_AT_EPOCH   = 38407
BSTAR          = .14665E-3
MEAN_MOTION_DOT = .2439E-4
MEAN_MOTION_DDOT = 0

