ATLAS CENTAUR R/B       
1 06155U 72065B   26084.77407558  .00001299  00000+0  17992-3 0  9991
2 06155  35.0006 211.4883 0033124 146.4052 213.8756 14.77730463843644
SL-8 R/B                
1 08459U 75112B   26084.71034103  .00000237  00000+0  86653-4 0  9994
2 08459  74.0633 349.4441 0014510  76.0449 284.2317 14.38212900634179
SL-3 R/B                
1 10114U 77057B   26084.77370926  .00013733  00000+0  28369-3 0  9991
2 10114  97.5798 257.4099 0006595 216.7814 143.2983 15.45942013670810
SEASAT 1                
1 10967U 78064A   26084.47482770  .00000259  00000+0  11092-3 0  9998
2 10967 108.0081 158.6212 0002568 278.2912  81.7942 14.46172802508795
SL-14 R/B               
1 11267U 79011B   26084.74421799  .00000641  00000+0  60727-4 0  9994
2 11267  82.5206  81.3315 0016238   9.8236 350.3298 14.91927692531178
SL-8 R/B                
1 11574U 79089B   26084.35132548  .00000232  00000+0  78176-4 0  9991
2 11574  74.0679  62.0487 0016856 232.8190 127.1429 14.42359244438369
SL-14 R/B               
1 11672U 80005B   26084.56647811  .00000540  00000+0  51945-4 0  9994
2 11672  82.5115 292.1730 0017194 108.7626 251.5460 14.90947396478854
SL-8 R/B                
1 12139U 81003B   26084.49433511  .00022514  00000+0  56619-3 0  9991
2 12139  82.9350 275.4019 0261169 123.6099 239.0357 15.11649481317064
SL-3 R/B                
1 12465U 81046B   26084.81062214  .00010586  00000+0  24307-3 0  9999
2 12465  81.2287 270.3765 0018341 325.4105  34.5943 15.42379515440913
SL-3 R/B                
1 12904U 81103B   26084.81925292  .00004610  00000+0  20303-3 0  9998
2 12904  81.1605 194.5116 0012684 228.8348 131.1790 15.21564208975683
SL-3 R/B                
1 13068U 82013B   26084.82080670  .00003637  00000+0  15628-3 0  9996
2 13068  81.1742 141.8637 0023421 124.3704 235.9748 15.22160441406808
SL-3 R/B                
1 13154U 82039B   26084.82422451  .00002439  00000+0  14665-3 0  9996
2 13154  81.1571 197.3586 0028838 271.2964  88.4958 15.10168382384077
